start=new Date('2022-10-17T00:00:00.000Z').valueOf();
sats=[{"APOAPSIS":"558.805","ECCENTRICITY":"0.00024070","MEAN_ELEMENT_THEORY":"SGP4","ELEMENT_SET_NO":"999","NORAD_CAT_ID":"53689","TLE_LINE1":"1 53689U 22105AT  22289.91667824 -.01233978  00000-0 -98609-1 0  9995","FILE":"3617955","SITE":"AFWTR","SEMIMAJOR_AXIS":"6935.271","CLASSIFICATION_TYPE":"U","RCS_SIZE":"LARGE","REF_FRAME":"TEME","MEAN_MOTION_DDOT":"0.0000000000000","MEAN_ANOMALY":"197.9064","TIME_SYSTEM":"UTC","OBJECT_ID":"2022-105AT","CENTER_NAME":"EARTH","COUNTRY_CODE":"US","REV_AT_EPOCH":"130","RA_OF_ASC_NODE":"169.4704","EPOCH":"2022-10-16T22:00:00.999936","BSTAR":"-0.09860900000000","ARG_OF_PERICENTER":"141.0983","INCLINATION":"97.6554","PERIOD":"95.798","OBJECT_NAME":"STARLINK-4562","GP_ID":"215349447","MEAN_MOTION":"15.03168437","MEAN_MOTION_DOT":"-0.01233978","LAUNCH_DATE":"2022-08-31","DECAY_DATE":null,"TLE_LINE2":"2 53689  97.6554 169.4704 0002407 141.0983 197.9064 15.03168437  1307","EPHEMERIS_TYPE":"0","OBJECT_TYPE":"PAYLOAD","PERIAPSIS":"555.466"},{"TLE_LINE1":"1 53690U 22105AU  22289.91667824 -.00208707  00000-0 -16669-1 0  9994","FILE":"3617955","NORAD_CAT_ID":"53690","ELEMENT_SET_NO":"999","CLASSIFICATION_TYPE":"U","SITE":"AFWTR","SEMIMAJOR_AXIS":"6940.729","ECCENTRICITY":"0.00019650","APOAPSIS":"563.958","MEAN_ELEMENT_THEORY":"SGP4","CENTER_NAME":"EARTH","REV_AT_EPOCH":"130","COUNTRY_CODE":"US","MEAN_MOTION_DDOT":"0.0000000000000","MEAN_ANOMALY":"241.4316","REF_FRAME":"TEME","RCS_SIZE":"LARGE","OBJECT_ID":"2022-105AU","TIME_SYSTEM":"UTC","INCLINATION":"97.6555","OBJECT_NAME":"STARLINK-4570","GP_ID":"215350280","PERIOD":"95.911","RA_OF_ASC_NODE":"169.4707","ARG_OF_PERICENTER":"120.0708","BSTAR":"-0.01666900000000","EPOCH":"2022-10-16T22:00:00.999936","TLE_LINE2":"2 53690  97.6555 169.4707 0001965 120.0708 241.4316 15.01395553  1307","PERIAPSIS":"561.230","OBJECT_TYPE":"PAYLOAD","EPHEMERIS_TYPE":"0","MEAN_MOTION_DOT":"-0.00208707","MEAN_MOTION":"15.01395553","DECAY_DATE":null,"LAUNCH_DATE":"2022-08-31"},{"MEAN_ELEMENT_THEORY":"SGP4","ECCENTRICITY":"0.00024790","APOAPSIS":"555.760","SEMIMAJOR_AXIS":"6932.177","SITE":"AFWTR","CLASSIFICATION_TYPE":"U","NORAD_CAT_ID":"53691","ELEMENT_SET_NO":"999","TLE_LINE1":"1 53691U 22105AV  22289.91667824 -.01233777  00000-0 -95977-1 0  9990","FILE":"3617955","TIME_SYSTEM":"UTC","OBJECT_ID":"2022-105AV","REF_FRAME":"TEME","RCS_SIZE":"LARGE","MEAN_MOTION_DDOT":"0.0000000000000","MEAN_ANOMALY":"211.4336","COUNTRY_CODE":"US","REV_AT_EPOCH":"130","CENTER_NAME":"EARTH","EPOCH":"2022-10-16T22:00:00.999936","BSTAR":"-0.09597700000000","ARG_OF_PERICENTER":"142.9165","RA_OF_ASC_NODE":"169.4699","PERIOD":"95.734","GP_ID":"215349280","OBJECT_NAME":"STARLINK-4560","INCLINATION":"97.6554","LAUNCH_DATE":"2022-08-31","DECAY_DATE":null,"MEAN_MOTION":"15.04174814","MEAN_MOTION_DOT":"-0.01233777","EPHEMERIS_TYPE":"0","PERIAPSIS":"552.323","OBJECT_TYPE":"PAYLOAD","TLE_LINE2":"2 53691  97.6554 169.4699 0002479 142.9165 211.4336 15.04174814  1305"},{"CENTER_NAME":"EARTH","REV_AT_EPOCH":"130","COUNTRY_CODE":"US","MEAN_ANOMALY":"237.2724","MEAN_MOTION_DDOT":"0.0000000000000","RCS_SIZE":"LARGE","REF_FRAME":"TEME","OBJECT_ID":"2022-105AW","TIME_SYSTEM":"UTC","FILE":"3617955","TLE_LINE1":"1 53692U 22105AW  22289.91667824  .00000251  00000-0  24144-4 0  9998","NORAD_CAT_ID":"53692","ELEMENT_SET_NO":"999","CLASSIFICATION_TYPE":"U","SITE":"AFWTR","SEMIMAJOR_AXIS":"6941.150","ECCENTRICITY":"0.00023100","APOAPSIS":"564.619","MEAN_ELEMENT_THEORY":"SGP4","TLE_LINE2":"2 53692  97.6555 169.4707 0002310 134.2985 237.2724 15.01258903  1301","PERIAPSIS":"561.412","OBJECT_TYPE":"PAYLOAD","EPHEMERIS_TYPE":"0","MEAN_MOTION_DOT":"0.00000251","MEAN_MOTION":"15.01258903","DECAY_DATE":null,"LAUNCH_DATE":"2022-08-31","INCLINATION":"97.6555","OBJECT_NAME":"STARLINK-4572","GP_ID":"215350198","PERIOD":"95.919","RA_OF_ASC_NODE":"169.4707","ARG_OF_PERICENTER":"134.2985","BSTAR":"0.00002414400000","EPOCH":"2022-10-16T22:00:00.999936"},{"COUNTRY_CODE":"US","REV_AT_EPOCH":"130","CENTER_NAME":"EARTH","TIME_SYSTEM":"UTC","OBJECT_ID":"2022-105AX","REF_FRAME":"TEME","RCS_SIZE":"LARGE","MEAN_ANOMALY":"236.4701","MEAN_MOTION_DDOT":"0.0000000000000","SITE":"AFWTR","SEMIMAJOR_AXIS":"6940.828","CLASSIFICATION_TYPE":"U","ELEMENT_SET_NO":"999","NORAD_CAT_ID":"53693","FILE":"3617955","TLE_LINE1":"1 53693U 22105AX  22289.91667824 -.00162536  00000-0 -12907-1 0  9997","MEAN_ELEMENT_THEORY":"SGP4","ECCENTRICITY":"0.00024470","APOAPSIS":"564.392","EPHEMERIS_TYPE":"0","PERIAPSIS":"560.995","OBJECT_TYPE":"PAYLOAD","TLE_LINE2":"2 53693  97.6555 169.4707 0002447 145.0497 236.4701 15.01363415  1302","LAUNCH_DATE":"2022-08-31","DECAY_DATE":null,"MEAN_MOTION":"15.01363415","MEAN_MOTION_DOT":"-0.00162536","PERIOD":"95.913","OBJECT_NAME":"STARLINK-4566","GP_ID":"215349864","INCLINATION":"97.6555","EPOCH":"2022-10-16T22:00:00.999936","BSTAR":"-0.01290700000000","ARG_OF_PERICENTER":"145.0497","RA_OF_ASC_NODE":"169.4707"},{"MEAN_MOTION":"15.73145679","MEAN_MOTION_DOT":"0.00090725","LAUNCH_DATE":"2022-09-05","DECAY_DATE":null,"TLE_LINE2":"2 53700  53.2134  66.1399 0001474  40.4371 134.0316 15.73145679  1304","EPHEMERIS_TYPE":"0","PERIAPSIS":"348.923","OBJECT_TYPE":"PAYLOAD","RA_OF_ASC_NODE":"66.1399","EPOCH":"2022-10-16T22:00:00.999936","ARG_OF_PERICENTER":"40.4371","BSTAR":"0.00064537000000","INCLINATION":"53.2134","PERIOD":"91.536","OBJECT_NAME":"STARLINK-4725","GP_ID":"215350448","REF_FRAME":"TEME","RCS_SIZE":"LARGE","MEAN_ANOMALY":"134.0316","MEAN_MOTION_DDOT":"0.0000000000000","TIME_SYSTEM":"UTC","OBJECT_ID":"2022-107A","CENTER_NAME":"EARTH","COUNTRY_CODE":"US","REV_AT_EPOCH":"130","ECCENTRICITY":"0.00014740","APOAPSIS":"350.907","MEAN_ELEMENT_THEORY":"SGP4","NORAD_CAT_ID":"53700","ELEMENT_SET_NO":"999","FILE":"3617955","TLE_LINE1":"1 53700U 22107A   22289.91667824  .00090725  00000-0  64537-3 0  9994","SITE":"AFETR","SEMIMAJOR_AXIS":"6728.050","CLASSIFICATION_TYPE":"U"},{"CENTER_NAME":"EARTH","REV_AT_EPOCH":"130","COUNTRY_CODE":"US","MEAN_MOTION_DDOT":"0.0000000000000","MEAN_ANOMALY":"136.2659","REF_FRAME":"TEME","RCS_SIZE":"LARGE","OBJECT_ID":"2022-107B","TIME_SYSTEM":"UTC","TLE_LINE1":"1 53701U 22107B   22289.91667824 -.00017824  00000-0 -12280-3 0  9994","FILE":"3617955","NORAD_CAT_ID":"53701","ELEMENT_SET_NO":"999","CLASSIFICATION_TYPE":"U","SITE":"AFETR","SEMIMAJOR_AXIS":"6727.874","ECCENTRICITY":"0.00015200","APOAPSIS":"350.762","MEAN_ELEMENT_THEORY":"SGP4","TLE_LINE2":"2 53701  53.2132  66.1379 0001520  38.7852 136.2659 15.73207260  1306","PERIAPSIS":"348.717","OBJECT_TYPE":"PAYLOAD","EPHEMERIS_TYPE":"0","MEAN_MOTION_DOT":"-0.00017824","MEAN_MOTION":"15.73207260","DECAY_DATE":null,"LAUNCH_DATE":"2022-09-05","INCLINATION":"53.2132","OBJECT_NAME":"STARLINK-4711","GP_ID":"215349448","PERIOD":"91.533","RA_OF_ASC_NODE":"66.1379","BSTAR":"-0.00012280000000","ARG_OF_PERICENTER":"38.7852","EPOCH":"2022-10-16T22:00:00.999936"},{"RA_OF_ASC_NODE":"66.1362","EPOCH":"2022-10-16T22:00:00.999936","ARG_OF_PERICENTER":"48.5336","BSTAR":"-0.00027318000000","INCLINATION":"53.2145","PERIOD":"91.533","GP_ID":"215350281","OBJECT_NAME":"STARLINK-4724","MEAN_MOTION":"15.73195982","MEAN_MOTION_DOT":"-0.00038776","LAUNCH_DATE":"2022-09-05","DECAY_DATE":null,"TLE_LINE2":"2 53702  53.2145  66.1362 0001320  48.5336 127.8003 15.73195982  1303","EPHEMERIS_TYPE":"0","PERIAPSIS":"348.884","OBJECT_TYPE":"PAYLOAD","ECCENTRICITY":"0.00013200","APOAPSIS":"350.660","MEAN_ELEMENT_THEORY":"SGP4","ELEMENT_SET_NO":"999","NORAD_CAT_ID":"53702","TLE_LINE1":"1 53702U 22107C   22289.91667824 -.00038776  00000-0 -27318-3 0  9992","FILE":"3617955","SITE":"AFETR","SEMIMAJOR_AXIS":"6727.907","CLASSIFICATION_TYPE":"U","RCS_SIZE":"LARGE","REF_FRAME":"TEME","MEAN_MOTION_DDOT":"0.0000000000000","MEAN_ANOMALY":"127.8003","TIME_SYSTEM":"UTC","OBJECT_ID":"2022-107C","CENTER_NAME":"EARTH","COUNTRY_CODE":"US","REV_AT_EPOCH":"130"},{"CLASSIFICATION_TYPE":"U","SITE":"AFETR","SEMIMAJOR_AXIS":"6727.823","FILE":"3617955","TLE_LINE1":"1 53703U 22107D   22289.91667824 -.00021115  00000-0 -14623-3 0  9997","NORAD_CAT_ID":"53703","ELEMENT_SET_NO":"999","MEAN_ELEMENT_THEORY":"SGP4","ECCENTRICITY":"0.00016930","APOAPSIS":"350.827","REV_AT_EPOCH":"130","COUNTRY_CODE":"US","CENTER_NAME":"EARTH","OBJECT_ID":"2022-107D","TIME_SYSTEM":"UTC","MEAN_ANOMALY":"128.1103","MEAN_MOTION_DDOT":"0.0000000000000","REF_FRAME":"TEME","RCS_SIZE":"LARGE","GP_ID":"215349281","OBJECT_NAME":"STARLINK-4731","PERIOD":"91.532","INCLINATION":"53.2154","ARG_OF_PERICENTER":"45.7168","BSTAR":"-0.00014623000000","EPOCH":"2022-10-16T22:00:00.999936","RA_OF_ASC_NODE":"66.1421","OBJECT_TYPE":"PAYLOAD","PERIAPSIS":"348.549","EPHEMERIS_TYPE":"0","TLE_LINE2":"2 53703  53.2154  66.1421 0001693  45.7168 128.1103 15.73225356  1309","DECAY_DATE":null,"LAUNCH_DATE":"2022-09-05","MEAN_MOTION_DOT":"-0.00021115","MEAN_MOTION":"15.73225356"},{"MEAN_MOTION_DOT":"-0.00016397","MEAN_MOTION":"15.73200388","DECAY_DATE":null,"LAUNCH_DATE":"2022-09-05","TLE_LINE2":"2 53704  53.2133  66.1447 0001621  40.6293 131.5102 15.73200388  1304","PERIAPSIS":"348.668","OBJECT_TYPE":"PAYLOAD","EPHEMERIS_TYPE":"0","RA_OF_ASC_NODE":"66.1447","ARG_OF_PERICENTER":"40.6293","BSTAR":"-0.00011263000000","EPOCH":"2022-10-16T22:00:00.999936","INCLINATION":"53.2133","GP_ID":"215350199","OBJECT_NAME":"STARLINK-4714","PERIOD":"91.533","MEAN_MOTION_DDOT":"0.0000000000000","MEAN_ANOMALY":"131.5102","REF_FRAME":"TEME","RCS_SIZE":"LARGE","OBJECT_ID":"2022-107E","TIME_SYSTEM":"UTC","CENTER_NAME":"EARTH","REV_AT_EPOCH":"130","COUNTRY_CODE":"US","APOAPSIS":"350.850","ECCENTRICITY":"0.00016210","MEAN_ELEMENT_THEORY":"SGP4","TLE_LINE1":"1 53704U 22107E   22289.91667824 -.00016397  00000-0 -11263-3 0  9991","FILE":"3617955","ELEMENT_SET_NO":"999","NORAD_CAT_ID":"53704","CLASSIFICATION_TYPE":"U","SITE":"AFETR","SEMIMAJOR_AXIS":"6727.894"}];
